{"type":"FeatureCollection","name":"GSHHS intermediate Bay Delta prototype land mask","features":[{"type":"Feature","properties":{"source":"GSHHS intermediate resolution via Basemap; shoreline approximate; review Delta waterways","bounds":[-123.6,36.7,-120.3,39.0]},"geometry":{"type":"Polygon","coordinates":[[[-121.86355590820312,36.931556701660156],[-121.9302749633789,36.97752380371094],[-121.9725570678711,36.954193115234375],[-122.01347351074219,36.96421813964844],[-122.05119323730469,36.947418212890625],[-122.13600158691406,36.96649932861328],[-122.22586059570312,37.02455139160156],[-122.29421997070312,37.1070556640625],[-122.33335876464844,37.110389709472656],[-122.36797332763672,37.17163848876953],[-122.40711212158203,37.19664001464844],[-122.42208099365234,37.25],[-122.4004135131836,37.35749816894531],[-122.4562759399414,37.486663818359375],[-122.47838592529297,37.50202941894531],[-122.50252532958984,37.49458312988281],[-122.52124786376953,37.53416442871094],[-122.52210998535156,37.594139099121094],[-122.50047302246094,37.60160827636719],[-122.49463653564453,37.649139404296875],[-122.51547241210938,37.7816162109375],[-122.48838806152344,37.789581298828125],[-122.47838592529297,37.80955505371094],[-122.41588592529297,37.81208801269531],[-122.3871078491211,37.79167175292969],[-122.3846664428711,37.74833679199219],[-122.35627746582031,37.728302001953125],[-122.39213562011719,37.70750427246094],[-122.38038635253906,37.67161560058594],[-122.3937759399414,37.66583251953125],[-122.373779296875,37.66160583496094],[-122.39208221435547,37.64247131347656],[-122.38835906982422,37.62957763671875],[-122.36377716064453,37.62750244140625],[-122.35797119140625,37.608306884765625],[-122.37791442871094,37.60664367675781],[-122.3625259399414,37.59288787841797],[-122.2566909790039,37.571250915527344],[-122.24835968017578,37.55207824707031],[-122.22797393798828,37.551666259765625],[-122.2375259399414,37.53044128417969],[-122.22088623046875,37.545440673828125],[-122.22750091552734,37.53456115722656],[-122.19630432128906,37.53669738769531],[-122.21585845947266,37.503753662109375],[-122.20002746582031,37.52458190917969],[-122.16666412353516,37.49791717529297],[-122.1366958618164,37.50794219970703],[-122.12049865722656,37.469970703125],[-122.092529296875,37.45121765136719],[-122.03177642822266,37.449615478515625],[-122.03585815429688,37.45957946777344],[-122.00894165039062,37.46417236328125],[-122.05085754394531,37.46458435058594],[-122.04755401611328,37.492889404296875],[-122.10880279541016,37.49913787841797],[-122.14958190917969,37.58580780029297],[-122.16374969482422,37.66999816894531],[-122.19044494628906,37.70410919189453],[-122.20088958740234,37.71208190917969],[-122.21419525146484,37.6995849609375],[-122.24333190917969,37.717918395996094],[-122.2621078491211,37.74333190917969],[-122.24008178710938,37.75041198730469],[-122.28922271728516,37.764556884765625],[-122.29916381835938,37.780418395996094],[-122.33210754394531,37.781639099121094],[-122.32208251953125,37.80413818359375],[-122.3429183959961,37.80580139160156],[-122.31208038330078,37.819976806640625],[-122.3312759399414,37.82416534423828],[-122.29794311523438,37.831634521484375],[-122.31378173828125,37.836639404296875],[-122.29963684082031,37.84080505371094],[-122.32213592529297,37.871665954589844],[-122.30874633789062,37.87164306640625],[-122.3254165649414,37.88999938964844],[-122.31463623046875,37.89497375488281],[-122.37083435058594,37.92372131347656],[-122.36344146728516,37.90538787841797],[-122.39585876464844,37.90538787841797],[-122.38713836669922,37.91996765136719],[-122.4229736328125,37.94667053222656],[-122.42919158935547,37.966278076171875],[-122.39836120605469,37.95288848876953],[-122.40088653564453,37.96955871582031],[-122.3671646118164,37.978302001953125],[-122.36669158935547,38.01483154296875],[-122.33747100830078,38.00408172607422],[-122.29933166503906,38.01411437988281],[-122.25697326660156,38.06083679199219],[-122.32269287109375,38.11578369140625],[-122.4090805053711,38.15492248535156],[-122.41102600097656,38.13725280761719],[-122.44652557373047,38.11402893066406],[-122.50005340576172,38.11094665527344],[-122.5157470703125,38.12913513183594],[-122.48577880859375,38.0814208984375],[-122.49988555908203,38.017417907714844],[-122.447998046875,37.98833465576172],[-122.50213623046875,37.969970703125],[-122.47916412353516,37.942054748535156],[-122.5129165649414,37.94163513183594],[-122.43878173828125,37.88166809082031],[-122.46299743652344,37.87249755859375],[-122.45835876464844,37.862060546875],[-122.48921966552734,37.89375305175781],[-122.50377655029297,37.89500427246094],[-122.49752807617188,37.87786102294922],[-122.52336120605469,37.892059326171875],[-122.47880554199219,37.85919189453125],[-122.47213745117188,37.833282470703125],[-122.52838897705078,37.81544494628906],[-122.56588745117188,37.85374450683594],[-122.65174865722656,37.900390625],[-122.72833251953125,37.90289306640625],[-122.85997009277344,38.01902770996094],[-122.93755340576172,38.034942626953125],[-122.97988891601562,38.013275146484375],[-122.96585845947266,37.98955535888672],[-123.02302551269531,37.994415283203125],[-122.95175170898438,38.15167236328125],[-122.99666595458984,38.237220764160156],[-122.97491455078125,38.23658752441406],[-122.97988891601562,38.26905822753906],[-123.02691650390625,38.310081481933594],[-123.06671905517578,38.30177307128906],[-123.08080291748047,38.322776794433594],[-123.07252502441406,38.36347198486328],[-123.13263702392578,38.452972412109375],[-123.33533477783203,38.565948486328125],[-123.46160888671875,38.718109130859375],[-123.6,38.804902660976474],[-123.6,39.0],[-122.72534043145252,39.0],[-122.71639251708984,38.97528076171875],[-122.6513900756836,38.95722198486328],[-122.616943359375,38.926666259765625],[-122.63583374023438,38.97166442871094],[-122.67804465485463,39.0],[-120.3,39.0],[-120.3,36.7],[-121.81221061319698,36.7],[-121.79027557373047,36.80744934082031],[-121.86355590820312,36.931556701660156]]]}}]}